{
  "type": "FeatureCollection",
  "crs": {
    "type": "name",
    "properties": {
      "name": "EPSG:4326"
    }
  },
  "features": [
    {
      "type": "Feature",
      "geometry": {
        "type": "Polygon",
        "coordinates": [
          [
            [
              -1.82730731594097,
              51.0907604939484
            ],
            [
              -1.82416548607216,
              51.0874562012121
            ],
            [
              -1.82762202737161,
              51.0885575796342
            ],
            [
              -1.82944643845717,
              51.0851802419445
            ],
            [
              -1.83542713228696,
              51.090205837559
            ],
            [
              -1.84240500627566,
              51.0878501403246
            ],
            [
              -1.85007876618981,
              51.0920577326779
            ],
            [
              -1.83756331902977,
              51.0995611359288
            ],
            [
              -1.82730731594097,
              51.0907604939484
            ]
          ]
        ]
      },
      "properties": {
        "LSOA21CD": "E01031980",
        "LSOA21NM": "Wiltshire 052A"
      }
    },
    {
      "type": "Feature",
      "geometry": {
        "type": "Polygon",
        "coordinates": [
          [
            [
              -1.82944643845717,
              51.0851802419445
            ],
            [
              -1.82791154427375,
              51.0838603949604
            ],
            [
              -1.82820821316917,
              51.0799847139268
            ],
            [
              -1.83479995113115,
              51.0797231326569
            ],
            [
              -1.8475072186023,
              51.0810052592773
            ],
            [
              -1.84240500627566,
              51.0878501403246
            ],
            [
              -1.83542713228696,
              51.090205837559
            ],
            [
              -1.82944643845717,
              51.0851802419445
            ]
          ]
        ]
      },
      "properties": {
        "LSOA21CD": "E01031981",
        "LSOA21NM": "Wiltshire 052B"
      }
    },
    {
      "type": "Feature",
      "geometry": {
        "type": "Polygon",
        "coordinates": [
          [
            [
              -1.81654356227987,
              51.0880932919625
            ],
            [
              -1.82268441121555,
              51.0797347216838
            ],
            [
              -1.82791154427375,
              51.0838603949604
            ],
            [
              -1.82944643845717,
              51.0851802419445
            ],
            [
              -1.82762202737161,
              51.0885575796342
            ],
            [
              -1.82416548607216,
              51.0874562012121
            ],
            [
              -1.82730731594097,
              51.0907604939484
            ],
            [
              -1.81677819173169,
              51.0955066622856
            ],
            [
              -1.81654356227987,
              51.0880932919625
            ]
          ]
        ]
      },
      "properties": {
        "LSOA21CD": "E01031982",
        "LSOA21NM": "Wiltshire 052C"
      }
    },
    {
      "type": "Feature",
      "geometry": {
        "type": "Polygon",
        "coordinates": [
          [
            [
              -1.82268441121555,
              51.0797347216838
            ],
            [
              -1.82302267395564,
              51.0794390278651
            ],
            [
              -1.82558388340827,
              51.07635710743
            ],
            [
              -1.83456750019223,
              51.0792999364762
            ],
            [
              -1.83479995113115,
              51.0797231326569
            ],
            [
              -1.82820821316917,
              51.0799847139268
            ],
            [
              -1.82791154427375,
              51.0838603949604
            ],
            [
              -1.82268441121555,
              51.0797347216838
            ]
          ]
        ]
      },
      "properties": {
        "LSOA21CD": "E01031983",
        "LSOA21NM": "Wiltshire 052D"
      }
    },
    {
      "type": "Feature",
      "geometry": {
        "type": "Polygon",
        "coordinates": [
          [
            [
              -1.7730813935964,
              51.0926378919653
            ],
            [
              -1.77056493245958,
              51.0904121452142
            ],
            [
              -1.78018493187344,
              51.0868793098715
            ],
            [
              -1.78274270954112,
              51.0905304331008
            ],
            [
              -1.78542450303607,
              51.0885097678712
            ],
            [
              -1.79895569829334,
              51.0929520580797
            ],
            [
              -1.78940739757758,
              51.0939580545155
            ],
            [
              -1.7730813935964,
              51.0926378919653
            ]
          ]
        ]
      },
      "properties": {
        "LSOA21CD": "E01031984",
        "LSOA21NM": "Wiltshire 051A"
      }
    },
    {
      "type": "Feature",
      "geometry": {
        "type": "Polygon",
        "coordinates": [
          [
            [
              -1.77056493245958,
              51.0904121452142
            ],
            [
              -1.76824580909855,
              51.0898711240705
            ],
            [
              -1.77555389579158,
              51.0848005895599
            ],
            [
              -1.78840637919932,
              51.0835134599072
            ],
            [
              -1.79125182638233,
              51.0882098540084
            ],
            [
              -1.79895569829334,
              51.0929520580797
            ],
            [
              -1.78542450303607,
              51.0885097678712
            ],
            [
              -1.78274270954112,
              51.0905304331008
            ],
            [
              -1.78018493187344,
              51.0868793098715
            ],
            [
              -1.77056493245958,
              51.0904121452142
            ]
          ]
        ]
      },
      "properties": {
        "LSOA21CD": "E01031985",
        "LSOA21NM": "Wiltshire 051B"
      }
    },
    {
      "type": "Feature",
      "geometry": {
        "type": "Polygon",
        "coordinates": [
          [
            [
              -1.78077349448057,
              51.0790888150055
            ],
            [
              -1.78372600480123,
              51.0778968033781
            ],
            [
              -1.78729471946673,
              51.0779191814024
            ],
            [
              -1.78840637919932,
              51.0835134599072
            ],
            [
              -1.77555389579158,
              51.0848005895599
            ],
            [
              -1.78077349448057,
              51.0790888150055
            ]
          ]
        ]
      },
      "properties": {
        "LSOA21CD": "E01031986",
        "LSOA21NM": "Wiltshire 051C"
      }
    },
    {
      "type": "Feature",
      "geometry": {
        "type": "Polygon",
        "coordinates": [
          [
            [
              -1.81646580536862,
              51.0769439466828
            ],
            [
              -1.81890265992725,
              51.0713695021279
            ],
            [
              -1.82874365347326,
              51.0725024374186
            ],
            [
              -1.83615400577915,
              51.0746791724291
            ],
            [
              -1.83456750019223,
              51.0792999364762
            ],
            [
              -1.82558388340827,
              51.07635710743
            ],
            [
              -1.82302267395564,
              51.0794390278651
            ],
            [
              -1.81646580536862,
              51.0769439466828
            ]
          ]
        ]
      },
      "properties": {
        "LSOA21CD": "E01032001",
        "LSOA21NM": "Wiltshire 055A"
      }
    },
    {
      "type": "Feature",
      "geometry": {
        "type": "Polygon",
        "coordinates": [
          [
            [
              -1.81125031171296,
              51.0770278085707
            ],
            [
              -1.81879111453786,
              51.0689737073095
            ],
            [
              -1.81890265992725,
              51.0713695021279
            ],
            [
              -1.81646580536862,
              51.0769439466828
            ],
            [
              -1.8117433742901,
              51.0772479439591
            ],
            [
              -1.81125031171296,
              51.0770278085707
            ]
          ]
        ]
      },
      "properties": {
        "LSOA21CD": "E01032002",
        "LSOA21NM": "Wiltshire 055B"
      }
    },
    {
      "type": "Feature",
      "geometry": {
        "type": "Polygon",
        "coordinates": [
          [
            [
              -1.80374323176908,
              51.0707187781353
            ],
            [
              -1.80333845652982,
              51.070544730005
            ],
            [
              -1.80426231276679,
              51.067995078119
            ],
            [
              -1.8093518035295,
              51.0696557399827
            ],
            [
              -1.81088791813941,
              51.0658341725269
            ],
            [
              -1.81738522976968,
              51.0648500768031
            ],
            [
              -1.81879111453786,
              51.0689737073095
            ],
            [
              -1.81125031171296,
              51.0770278085707
            ],
            [
              -1.80374323176908,
              51.0707187781353
            ]
          ]
        ]
      },
      "properties": {
        "LSOA21CD": "E01032003",
        "LSOA21NM": "Wiltshire 055C"
      }
    },
    {
      "type": "Feature",
      "geometry": {
        "type": "Polygon",
        "coordinates": [
          [
            [
              -1.7839882910074,
              51.0525920946967
            ],
            [
              -1.7903474998025,
              51.056943984098
            ],
            [
              -1.7913375068298,
              51.0539334973652
            ],
            [
              -1.79776312699141,
              51.0557666843035
            ],
            [
              -1.7945817868585,
              51.0609468399989
            ],
            [
              -1.78850892894957,
              51.0613660304051
            ],
            [
              -1.778388528125,
              51.0568978195518
            ],
            [
              -1.7839882910074,
              51.0525920946967
            ]
          ]
        ]
      },
      "properties": {
        "LSOA21CD": "E01032005",
        "LSOA21NM": "Wiltshire 059A"
      }
    },
    {
      "type": "Feature",
      "geometry": {
        "type": "Polygon",
        "coordinates": [
          [
            [
              -1.79776312699141,
              51.0557666843035
            ],
            [
              -1.80165142296019,
              51.054765882087
            ],
            [
              -1.79892974010753,
              51.048811577824
            ],
            [
              -1.80986069641961,
              51.0536987647219
            ],
            [
              -1.7964940054771,
              51.060590868354
            ],
            [
              -1.7945817868585,
              51.0609468399989
            ],
            [
              -1.79776312699141,
              51.0557666843035
            ]
          ]
        ]
      },
      "properties": {
        "LSOA21CD": "E01032006",
        "LSOA21NM": "Wiltshire 059B"
      }
    },
    {
      "type": "Feature",
      "geometry": {
        "type": "Polygon",
        "coordinates": [
          [
            [
              -1.80872464153732,
              51.0581596024971
            ],
            [
              -1.81902171549666,
              51.058753321347
            ],
            [
              -1.81772733380393,
              51.0640935807167
            ],
            [
              -1.81767507007227,
              51.0618162168917
            ],
            [
              -1.80809068121137,
              51.0634937356715
            ],
            [
              -1.80872464153732,
              51.0581596024971
            ]
          ]
        ]
      },
      "properties": {
        "LSOA21CD": "E01032008",
        "LSOA21NM": "Wiltshire 058A"
      }
    },
    {
      "type": "Feature",
      "geometry": {
        "type": "Polygon",
        "coordinates": [
          [
            [
              -1.80426231276679,
              51.067995078119
            ],
            [
              -1.79863058513225,
              51.0604309232419
            ],
            [
              -1.7964940054771,
              51.060590868354
            ],
            [
              -1.80986069641961,
              51.0536987647219
            ],
            [
              -1.80872464153732,
              51.0581596024971
            ],
            [
              -1.80809068121137,
              51.0634937356715
            ],
            [
              -1.81767507007227,
              51.0618162168917
            ],
            [
              -1.81772733380393,
              51.0640935807167
            ],
            [
              -1.81738522976968,
              51.0648500768031
            ],
            [
              -1.81088791813941,
              51.0658341725269
            ],
            [
              -1.8093518035295,
              51.0696557399827
            ],
            [
              -1.80426231276679,
              51.067995078119
            ]
          ]
        ]
      },
      "properties": {
        "LSOA21CD": "E01032009",
        "LSOA21NM": "Wiltshire 058B"
      }
    },
    {
      "type": "Feature",
      "geometry": {
        "type": "Polygon",
        "coordinates": [
          [
            [
              -1.77108099273215,
              51.0633743585097
            ],
            [
              -1.77970301372986,
              51.0649478908747
            ],
            [
              -1.77649430874681,
              51.0676226729008
            ],
            [
              -1.78232195407983,
              51.0708348679163
            ],
            [
              -1.78077349448057,
              51.0790888150055
            ],
            [
              -1.77555389579158,
              51.0848005895599
            ],
            [
              -1.76824580909855,
              51.0898711240705
            ],
            [
              -1.76565361753156,
              51.0881990639135
            ],
            [
              -1.77094257424027,
              51.0850914333636
            ],
            [
              -1.77086152502289,
              51.0779755683601
            ],
            [
              -1.76458494030773,
              51.0769519999814
            ],
            [
              -1.76428072500144,
              51.0742428043855
            ],
            [
              -1.77302727287051,
              51.0768589420465
            ],
            [
              -1.77971219876763,
              51.0742804956228
            ],
            [
              -1.76501232683992,
              51.0688817859223
            ],
            [
              -1.77108099273215,
              51.0633743585097
            ]
          ]
        ]
      },
      "properties": {
        "LSOA21CD": "E01032012",
        "LSOA21NM": "Wiltshire 057C"
      }
    },
    {
      "type": "Feature",
      "geometry": {
        "type": "Polygon",
        "coordinates": [
          [
            [
              -1.78712526373364,
              51.0748283507727
            ],
            [
              -1.78595737526128,
              51.0749016757898
            ],
            [
              -1.78905246854261,
              51.0707792077358
            ],
            [
              -1.78977369918686,
              51.0695313072721
            ],
            [
              -1.80333845652982,
              51.070544730005
            ],
            [
              -1.80374323176908,
              51.0707187781353
            ],
            [
              -1.79797238704229,
              51.0747244274892
            ],
            [
              -1.79710903537025,
              51.075278603274
            ],
            [
              -1.79395035474144,
              51.0726210846095
            ],
            [
              -1.78712526373364,
              51.0748283507727
            ]
          ]
        ]
      },
      "properties": {
        "LSOA21CD": "E01032014",
        "LSOA21NM": "Wiltshire 056A"
      }
    },
    {
      "type": "Feature",
      "geometry": {
        "type": "Polygon",
        "coordinates": [
          [
            [
              -1.78232195407983,
              51.0708348679163
            ],
            [
              -1.78715943999191,
              51.0683444771346
            ],
            [
              -1.78905246854261,
              51.0707792077358
            ],
            [
              -1.78595737526128,
              51.0749016757898
            ],
            [
              -1.78372600480123,
              51.0778968033781
            ],
            [
              -1.78077349448057,
              51.0790888150055
            ],
            [
              -1.78232195407983,
              51.0708348679163
            ]
          ]
        ]
      },
      "properties": {
        "LSOA21CD": "E01032015",
        "LSOA21NM": "Wiltshire 056B"
      }
    },
    {
      "type": "Feature",
      "geometry": {
        "type": "Polygon",
        "coordinates": [
          [
            [
              -1.78712526373364,
              51.0748283507727
            ],
            [
              -1.79395035474144,
              51.0726210846095
            ],
            [
              -1.79710903537025,
              51.075278603274
            ],
            [
              -1.78712526373364,
              51.0748283507727
            ]
          ]
        ]
      },
      "properties": {
        "LSOA21CD": "E01032016",
        "LSOA21NM": "Wiltshire 056C"
      }
    },
    {
      "type": "Feature",
      "geometry": {
        "type": "Polygon",
        "coordinates": [
          [
            [
              -1.78840637919932,
              51.0835134599072
            ],
            [
              -1.78729471946673,
              51.0779191814024
            ],
            [
              -1.79044520954346,
              51.0809478989691
            ],
            [
              -1.79793941003067,
              51.0783710534428
            ],
            [
              -1.7913839876693,
              51.0814017826897
            ],
            [
              -1.79606044863215,
              51.0835681604723
            ],
            [
              -1.79125182638233,
              51.0882098540084
            ],
            [
              -1.78840637919932,
              51.0835134599072
            ]
          ]
        ]
      },
      "properties": {
        "LSOA21CD": "E01032017",
        "LSOA21NM": "Wiltshire 051D"
      }
    },
    {
      "type": "Feature",
      "geometry": {
        "type": "Polygon",
        "coordinates": [
          [
            [
              -1.79497377234588,
              51.105712024349
            ],
            [
              -1.79506217801345,
              51.1055896527411
            ],
            [
              -1.79895569829334,
              51.0929520580797
            ],
            [
              -1.79125182638233,
              51.0882098540084
            ],
            [
              -1.79606044863215,
              51.0835681604723
            ],
            [
              -1.80238205445948,
              51.0862462241688
            ],
            [
              -1.80833411735391,
              51.0813511215509
            ],
            [
              -1.81654356227987,
              51.0880932919625
            ],
            [
              -1.81677819173169,
              51.0955066622856
            ],
            [
              -1.80832906415205,
              51.1004572543068
            ],
            [
              -1.81187796526699,
              51.1073773253768
            ],
            [
              -1.80703245308327,
              51.1098192397817
            ],
            [
              -1.79497377234588,
              51.105712024349
            ]
          ]
        ]
      },
      "properties": {
        "LSOA21CD": "E01032018",
        "LSOA21NM": "Wiltshire 053A"
      }
    },
    {
      "type": "Feature",
      "geometry": {
        "type": "Polygon",
        "coordinates": [
          [
            [
              -1.79606044863215,
              51.0835681604723
            ],
            [
              -1.7913839876693,
              51.0814017826897
            ],
            [
              -1.79793941003067,
              51.0783710534428
            ],
            [
              -1.80108340207257,
              51.077815931024
            ],
            [
              -1.80728714099892,
              51.0806239807894
            ],
            [
              -1.80833411735391,
              51.0813511215509
            ],
            [
              -1.80238205445948,
              51.0862462241688
            ],
            [
              -1.79606044863215,
              51.0835681604723
            ]
          ]
        ]
      },
      "properties": {
        "LSOA21CD": "E01032019",
        "LSOA21NM": "Wiltshire 053B"
      }
    },
    {
      "type": "Feature",
      "geometry": {
        "type": "Polygon",
        "coordinates": [
          [
            [
              -1.78729471946673,
              51.0779191814024
            ],
            [
              -1.78372600480123,
              51.0778968033781
            ],
            [
              -1.78595737526128,
              51.0749016757898
            ],
            [
              -1.78712526373364,
              51.0748283507727
            ],
            [
              -1.79710903537025,
              51.075278603274
            ],
            [
              -1.79797238704229,
              51.0747244274892
            ],
            [
              -1.80108340207257,
              51.077815931024
            ],
            [
              -1.79793941003067,
              51.0783710534428
            ],
            [
              -1.79044520954346,
              51.0809478989691
            ],
            [
              -1.78729471946673,
              51.0779191814024
            ]
          ]
        ]
      },
      "properties": {
        "LSOA21CD": "E01032020",
        "LSOA21NM": "Wiltshire 053C"
      }
    },
    {
      "type": "Feature",
      "geometry": {
        "type": "Polygon",
        "coordinates": [
          [
            [
              -1.77108099273215,
              51.0633743585097
            ],
            [
              -1.7727681962828,
              51.0559860798288
            ],
            [
              -1.78366578837466,
              51.0634310352383
            ],
            [
              -1.78723398336807,
              51.0615535809632
            ],
            [
              -1.78967347138069,
              51.0683359080576
            ],
            [
              -1.78977369918686,
              51.0695313072721
            ],
            [
              -1.78905246854261,
              51.0707792077358
            ],
            [
              -1.78715943999191,
              51.0683444771346
            ],
            [
              -1.78232195407983,
              51.0708348679163
            ],
            [
              -1.77649430874681,
              51.0676226729008
            ],
            [
              -1.77970301372986,
              51.0649478908747
            ],
            [
              -1.77108099273215,
              51.0633743585097
            ]
          ]
        ]
      },
      "properties": {
        "LSOA21CD": "E01032021",
        "LSOA21NM": "Wiltshire 056D"
      }
    },
    {
      "type": "Feature",
      "geometry": {
        "type": "Polygon",
        "coordinates": [
          [
            [
              -1.78977369918686,
              51.0695313072721
            ],
            [
              -1.78967347138069,
              51.0683359080576
            ],
            [
              -1.79342676816833,
              51.0685568688332
            ],
            [
              -1.79343683434229,
              51.0636322353466
            ],
            [
              -1.79863058513225,
              51.0604309232419
            ],
            [
              -1.80426231276679,
              51.067995078119
            ],
            [
              -1.80333845652982,
              51.070544730005
            ],
            [
              -1.78977369918686,
              51.0695313072721
            ]
          ]
        ]
      },
      "properties": {
        "LSOA21CD": "E01032022",
        "LSOA21NM": "Wiltshire 058C"
      }
    },
    {
      "type": "Feature",
      "geometry": {
        "type": "Polygon",
        "coordinates": [
          [
            [
              -1.78967347138069,
              51.0683359080576
            ],
            [
              -1.78723398336807,
              51.0615535809632
            ],
            [
              -1.78850892894957,
              51.0613660304051
            ],
            [
              -1.7945817868585,
              51.0609468399989
            ],
            [
              -1.7964940054771,
              51.060590868354
            ],
            [
              -1.79863058513225,
              51.0604309232419
            ],
            [
              -1.79343683434229,
              51.0636322353466
            ],
            [
              -1.79342676816833,
              51.0685568688332
            ],
            [
              -1.78967347138069,
              51.0683359080576
            ]
          ]
        ]
      },
      "properties": {
        "LSOA21CD": "E01032023",
        "LSOA21NM": "Wiltshire 059D"
      }
    },
    {
      "type": "Feature",
      "geometry": {
        "type": "Polygon",
        "coordinates": [
          [
            [
              -1.80108340207257,
              51.077815931024
            ],
            [
              -1.79797238704229,
              51.0747244274892
            ],
            [
              -1.80374323176908,
              51.0707187781353
            ],
            [
              -1.81125031171296,
              51.0770278085707
            ],
            [
              -1.8117433742901,
              51.0772479439591
            ],
            [
              -1.80728714099892,
              51.0806239807894
            ],
            [
              -1.80108340207257,
              51.077815931024
            ]
          ]
        ]
      },
      "properties": {
        "LSOA21CD": "E01032024",
        "LSOA21NM": "Wiltshire 055D"
      }
    },
    {
      "type": "Feature",
      "geometry": {
        "type": "Polygon",
        "coordinates": [
          [
            [
              -1.80833411735391,
              51.0813511215509
            ],
            [
              -1.80728714099892,
              51.0806239807894
            ],
            [
              -1.8117433742901,
              51.0772479439591
            ],
            [
              -1.81646580536862,
              51.0769439466828
            ],
            [
              -1.82302267395564,
              51.0794390278651
            ],
            [
              -1.82268441121555,
              51.0797347216838
            ],
            [
              -1.81654356227987,
              51.0880932919625
            ],
            [
              -1.80833411735391,
              51.0813511215509
            ]
          ]
        ]
      },
      "properties": {
        "LSOA21CD": "E01032025",
        "LSOA21NM": "Wiltshire 053D"
      }
    },
    {
      "type": "Feature",
      "geometry": {
        "type": "Polygon",
        "coordinates": [
          [
            [
              -1.75192768454837,
              51.097293730478
            ],
            [
              -1.74641723887719,
              51.0938570728854
            ],
            [
              -1.74222133326756,
              51.0954792447867
            ],
            [
              -1.71881380840113,
              51.0916847660576
            ],
            [
              -1.7132216877704,
              51.0878234053296
            ],
            [
              -1.70065864592533,
              51.0670595010431
            ],
            [
              -1.70206545032634,
              51.0590797548362
            ],
            [
              -1.70890241000248,
              51.0542572770804
            ],
            [
              -1.73327206344144,
              51.0507239847896
            ],
            [
              -1.7426868088747,
              51.0483237792887
            ],
            [
              -1.75484500089061,
              51.0514809298336
            ],
            [
              -1.76372363792978,
              51.0568330950967
            ],
            [
              -1.7727681962828,
              51.0559860798288
            ],
            [
              -1.77108099273215,
              51.0633743585097
            ],
            [
              -1.76501232683992,
              51.0688817859223
            ],
            [
              -1.77971219876763,
              51.0742804956228
            ],
            [
              -1.77302727287051,
              51.0768589420465
            ],
            [
              -1.76428072500144,
              51.0742428043855
            ],
            [
              -1.76458494030773,
              51.0769519999814
            ],
            [
              -1.77086152502289,
              51.0779755683601
            ],
            [
              -1.77094257424027,
              51.0850914333636
            ],
            [
              -1.76565361753156,
              51.0881990639135
            ],
            [
              -1.76824580909855,
              51.0898711240705
            ],
            [
              -1.77056493245958,
              51.0904121452142
            ],
            [
              -1.7730813935964,
              51.0926378919653
            ],
            [
              -1.76440458733638,
              51.0961124703693
            ],
            [
              -1.75722105362431,
              51.10043731541
            ],
            [
              -1.75192768454837,
              51.097293730478
            ]
          ]
        ]
      },
      "properties": {
        "LSOA21CD": "E01034550",
        "LSOA21NM": "Wiltshire 057G"
      }
    }
  ],
  "_source_url": "https://services1.arcgis.com/ESMARspQHYMw9BZ9/arcgis/rest/services/Lower_layer_Super_Output_Areas_December_2021_Boundaries_EW_BSC_V4/FeatureServer/0/query?where=LSOA21CD+IN+%28%27E01031980%27%2C%27E01031981%27%2C%27E01031982%27%2C%27E01031983%27%2C%27E01031984%27%2C%27E01031985%27%2C%27E01031986%27%2C%27E01032001%27%2C%27E01032002%27%2C%27E01032003%27%2C%27E01032005%27%2C%27E01032006%27%2C%27E01032008%27%2C%27E01032009%27%2C%27E01032012%27%2C%27E01032014%27%2C%27E01032015%27%2C%27E01032016%27%2C%27E01032017%27%2C%27E01032018%27%2C%27E01032019%27%2C%27E01032020%27%2C%27E01032021%27%2C%27E01032022%27%2C%27E01032023%27%2C%27E01032024%27%2C%27E01032025%27%2C%27E01034550%27%29&outFields=LSOA21CD%2CLSOA21NM&outSR=4326&f=geojson"
}